[{"OBJECT_NAME":"QIANFAN-7","OBJECT_ID":"2024-140G","EPOCH":"2026-03-09T22:22:28.116768","MEAN_MOTION":14.27774901,"ECCENTRICITY":0.00169421,"INCLINATION":88.9727,"RA_OF_ASC_NODE":283.4803,"ARG_OF_PERICENTER":110.6267,"MEAN_ANOMALY":249.6747,"EPHEMERIS_TYPE":0,"CLASSIFICATION_TYPE":"U","NORAD_CAT_ID":60385,"ELEMENT_SET_NO":999,"REV_AT_EPOCH":8283,"BSTAR":0.00011108135,"MEAN_MOTION_DOT":2.89e-6,"MEAN_MOTION_DDOT":0},{"OBJECT_NAME":"FENGYUN 1C DEB","OBJECT_ID":"1999-025LD","EPOCH":"2026-03-09T21:56:23.355744","MEAN_MOTION":14.26192039,"ECCENTRICITY":0.01056256,"INCLINATION":98.3639,"RA_OF_ASC_NODE":93.236,"ARG_OF_PERICENTER":267.0809,"MEAN_ANOMALY":167.5255,"EPHEMERIS_TYPE":0,"CLASSIFICATION_TYPE":"U","NORAD_CAT_ID":29979,"ELEMENT_SET_NO":999,"REV_AT_EPOCH":99316,"BSTAR":0.00045143221,"MEAN_MOTION_DOT":1.104e-5,"MEAN_MOTION_DDOT":0}]
